[{"OBJECT_NAME":"FLOCK 4BE-35","OBJECT_ID":"2024-149CU","EPOCH":"2026-03-07T04:19:11.181792","MEAN_MOTION":15.43075975,"ECCENTRICITY":0.00047657,"INCLINATION":97.379,"RA_OF_ASC_NODE":149.3911,"ARG_OF_PERICENTER":266.9176,"MEAN_ANOMALY":93.1526,"EPHEMERIS_TYPE":0,"CLASSIFICATION_TYPE":"U","NORAD_CAT_ID":60558,"ELEMENT_SET_NO":999,"REV_AT_EPOCH":8661,"BSTAR":0.0022361782,"MEAN_MOTION_DOT":0.00099892,"MEAN_MOTION_DDOT":0},{"OBJECT_NAME":"FLOCK 4BE-5","OBJECT_ID":"2024-149CV","EPOCH":"2026-03-07T10:45:38.344608","MEAN_MOTION":15.36901714,"ECCENTRICITY":0.00024591,"INCLINATION":97.3882,"RA_OF_ASC_NODE":149.7009,"ARG_OF_PERICENTER":301.2539,"MEAN_ANOMALY":58.8464,"EPHEMERIS_TYPE":0,"CLASSIFICATION_TYPE":"U","NORAD_CAT_ID":60559,"ELEMENT_SET_NO":999,"REV_AT_EPOCH":8663,"BSTAR":0.00080586039,"MEAN_MOTION_DOT":0.0002907,"MEAN_MOTION_DDOT":0},{"OBJECT_NAME":"FLOCK 4BE-12","OBJECT_ID":"2024-149CW","EPOCH":"2026-03-07T11:10:30.722304","MEAN_MOTION":15.46130782,"ECCENTRICITY":0.00059377,"INCLINATION":97.3759,"RA_OF_ASC_NODE":150.399,"ARG_OF_PERICENTER":270.2664,"MEAN_ANOMALY":89.7905,"EPHEMERIS_TYPE":0,"CLASSIFICATION_TYPE":"U","NORAD_CAT_ID":60560,"ELEMENT_SET_NO":999,"REV_AT_EPOCH":8672,"BSTAR":0.0030289248,"MEAN_MOTION_DOT":0.00151086,"MEAN_MOTION_DDOT":0},{"OBJECT_NAME":"FLOCK 4BE-3","OBJECT_ID":"2024-149CX","EPOCH":"2026-03-07T10:51:56.309184","MEAN_MOTION":15.38095655,"ECCENTRICITY":0.00031642,"INCLINATION":97.3738,"RA_OF_ASC_NODE":149.6285,"ARG_OF_PERICENTER":288.9905,"MEAN_ANOMALY":71.0997,"EPHEMERIS_TYPE":0,"CLASSIFICATION_TYPE":"U","NORAD_CAT_ID":60561,"ELEMENT_SET_NO":999,"REV_AT_EPOCH":8668,"BSTAR":0.00071378797,"MEAN_MOTION_DOT":0.00026746,"MEAN_MOTION_DDOT":0},{"OBJECT_NAME":"FLOCK 4BE-19","OBJECT_ID":"2024-149CZ","EPOCH":"2026-03-07T12:39:42.718464","MEAN_MOTION":15.4023423,"ECCENTRICITY":0.00030577,"INCLINATION":97.3783,"RA_OF_ASC_NODE":150.8014,"ARG_OF_PERICENTER":292.8298,"MEAN_ANOMALY":67.2625,"EPHEMERIS_TYPE":0,"CLASSIFICATION_TYPE":"U","NORAD_CAT_ID":60563,"ELEMENT_SET_NO":999,"REV_AT_EPOCH":8675,"BSTAR":0.00078572087,"MEAN_MOTION_DOT":0.000316,"MEAN_MOTION_DDOT":0},{"OBJECT_NAME":"PELICAN-2","OBJECT_ID":"2025-009Y","EPOCH":"2026-03-07T12:24:55.493280","MEAN_MOTION":15.40266346,"ECCENTRICITY":0.0008042,"INCLINATION":97.4036,"RA_OF_ASC_NODE":156.7964,"ARG_OF_PERICENTER":220.8507,"MEAN_ANOMALY":139.2138,"EPHEMERIS_TYPE":0,"CLASSIFICATION_TYPE":"U","NORAD_CAT_ID":62631,"ELEMENT_SET_NO":999,"REV_AT_EPOCH":6390,"BSTAR":0.0014915046,"MEAN_MOTION_DOT":0.00060403,"MEAN_MOTION_DDOT":0},{"OBJECT_NAME":"PELICAN-3","OBJECT_ID":"2025-188A","EPOCH":"2026-03-06T04:01:48.814176","MEAN_MOTION":15.4060282,"ECCENTRICITY":0.00043083,"INCLINATION":97.219,"RA_OF_ASC_NODE":142.7536,"ARG_OF_PERICENTER":196.6953,"MEAN_ANOMALY":163.4153,"EPHEMERIS_TYPE":0,"CLASSIFICATION_TYPE":"U","NORAD_CAT_ID":65315,"ELEMENT_SET_NO":999,"REV_AT_EPOCH":2945,"BSTAR":0.0013690905,"MEAN_MOTION_DOT":0.00055982,"MEAN_MOTION_DDOT":0},{"OBJECT_NAME":"PELICAN-4","OBJECT_ID":"2025-188B","EPOCH":"2026-03-06T15:18:58.456512","MEAN_MOTION":15.40640343,"ECCENTRICITY":0.00038646,"INCLINATION":97.2329,"RA_OF_ASC_NODE":143.3151,"ARG_OF_PERICENTER":105.1237,"MEAN_ANOMALY":255.0438,"EPHEMERIS_TYPE":0,"CLASSIFICATION_TYPE":"U","NORAD_CAT_ID":65316,"ELEMENT_SET_NO":999,"REV_AT_EPOCH":2952,"BSTAR":0.00022264636,"MEAN_MOTION_DOT":8.992e-5,"MEAN_MOTION_DDOT":0}]
