FLOCK 4BE-35            
1 60558U 24149CU  26066.17999053  .00099892  00000+0  22362-2 0  9990
2 60558  97.3790 149.3911 0004765 266.9176  93.1526 15.43075975 86611
FLOCK 4BE-5             
1 60559U 24149CV  26066.44836047  .00029070  00000+0  80586-3 0  9998
2 60559  97.3882 149.7009 0002459 301.2539  58.8464 15.36901714 86632
FLOCK 4BE-12            
1 60560U 24149CW  26066.46563336  .00151086  00000+0  30289-2 0  9997
2 60560  97.3759 150.3990 0005937 270.2664  89.7905 15.46130782 86725
FLOCK 4BE-3             
1 60561U 24149CX  26066.45273506  .00026746  00000+0  71379-3 0  9994
2 60561  97.3738 149.6285 0003164 288.9905  71.0997 15.38095655 86685
FLOCK 4BE-19            
1 60563U 24149CZ  26066.52757776  .00031600  00000+0  78572-3 0  9997
2 60563  97.3783 150.8014 0003057 292.8298  67.2625 15.40234230 86751
PELICAN-2               
1 62631U 25009Y   26066.51730895  .00060403  00000+0  14915-2 0  9996
2 62631  97.4036 156.7964 0008042 220.8507 139.2138 15.40266346 63907
PELICAN-3               
1 65315U 25188A   26065.16792609  .00055982  00000+0  13691-2 0  9993
2 65315  97.2190 142.7536 0004308 196.6953 163.4153 15.40602820 29453
PELICAN-4               
1 65316U 25188B   26065.63817658  .00008992  00000+0  22265-3 0  9995
2 65316  97.2329 143.3151 0003864 105.1237 255.0438 15.40640343 29528
